0068P         2019 11  9.1318  1.794791  0.637645  153.1301  175.0641   11.1102  20210511  10.0  4.0  68P/Klemola                                              MPC 75716
0069P         2019 03 18.1238  2.281656  0.413092  343.4531  104.8263   22.0338  20210511   9.5 12.0  69P/Taylor                                               MPC114607
0070P         2021 11  3.1504  2.008957  0.453602    1.8402  119.2686    6.5982  20210511  11.0  6.0  70P/Kojima                                               MPEC 2021-BE3
0071P         2023 01 21.5065  1.588080  0.493974  209.0471   59.4190    9.4383  20210511   9.8  6.0  71P/Clark                                                MPC107051
0072P         2023 06 16.0137  0.782945  0.818378  346.6866   26.6911   10.9406  20210511  17.5 10.0  72P/Denning-Fujikawa                                     MPC 89011
0073P         2022 08 25.6300  0.972609  0.685538  199.4654   69.6319   11.2295  20210511  11.5  6.0  73P/Schwassmann-Wachmann                                 MPC106348
0073P      t  2022 08 27.1295  0.972474  0.685741  199.4469   69.6345   11.2316  20210511  11.5  6.0  73P-T/Schwassmann-Wachmann                               MPC106348
0074P         2018 04 19.1206  3.658657  0.149951  103.7383   73.3542    6.2302  20210511   5.0  6.0  74P/Smirnova-Chernykh                                    MPEC 2021-BE3
0076P         2019 10 26.0590  1.603994  0.538122  359.9731   84.1170   30.4593  20210511  15.5  4.0  76P/West-Kohoutek-Ikemura                                MPEC 2021-F20
0077P         2023 04  3.3384  2.346661  0.352061  196.8387   14.7831   24.3194  20210511   7.0  8.0  77P/Longmore                                             MPC100283
0078P         2019 04  2.7742  2.011453  0.462021  192.6315  210.5203    6.2511  20210511   9.0  4.0  78P/Gehrels                                              MPEC 2016-U66
0079P         2023 09 30.7858  1.121687  0.618849  281.8002  280.5320    3.1479  20210511  16.0  4.0  79P/du Toit-Hartley                                      MPC 94675
0080P         2022 12  8.7921  1.614445  0.598831  339.2521  259.8169   29.9317  20210511   9.0  4.0  80P/Peters-Hartley                                       MPEC 2014-P41
0081P         2022 12 15.7620  1.597914  0.537043   41.6837  136.0983    3.2368  20210511   7.0  6.0  81P/Wild                                                 MPC105241
0084P         2020 06  3.8553  1.718780  0.515703  281.5727  108.1740    7.5519  20210511   9.5  8.0  84P/Giclas                                               MPEC 2020-FB5
0086P         2022 02  7.5130  2.260801  0.372450  179.3742   72.3611   15.4741  20210511  11.0  6.0  86P/Wild                                                 MPC109147
0087P         2020 05  9.7781  2.100651  0.390023   25.1581  181.7893    2.6049  20210511   7.2 10.0  87P/Bus                                                  MPEC 2020-SI8
0088P         2020 09 26.5796  1.353041  0.564246  235.9036   56.6795    4.3837  20210511  12.4  4.0  88P/Howell                                               MPEC 2021-F20
0089P         2024 03 25.9290  2.220113  0.408596  250.3366   41.3836   12.0693  20210511  11.5  6.0  89P/Russell                                              MPC100283
0090P         2017 06 19.3276  2.965472  0.510078   29.0689   13.2061    9.6462  20210511   8.5  6.0  90P/Gehrels                                              MPC107051
0091P         2020 11  9.5627  2.604314  0.331064  354.8525  247.8202   14.0879  20210511   7.5  6.0  91P/Russell                                              MPC105241
0092P         2027 07 12.1838  1.812417  0.660879  163.7471  181.3703   19.4947  20210511  12.0  6.0  92P/Sanguin                                              MPEC 2014-J58
0093P         2017 02 28.9322  1.698268  0.612528   74.8162  339.6450   12.2033  20210511   9.0  4.0  93P/Lovas                                                NK   2707
0094P         2023 05 21.4719  2.227604  0.364873   92.4649   70.8589    6.1879  20210511   9.0  6.0  94P/Russell                                              MPEC 2020-W26
0095P         1996 01 19.4983  8.529229  0.377394  339.7231  209.2713    6.9310  20210511   6.5  2.0  95P/Chiron                                               MPC 75717
0096P         2023 01 31.2738  0.116295  0.961595   14.7360   94.0063   57.6100  20210511   9.0  4.0  96P/Machholz                                             MPEC 2017-T14
0097P         2022 02 15.2502  2.570713  0.460557  229.8898  184.0798   17.9454  20210511   5.5  6.0  97P/Metcalf-Brewington                                   MPC 77020
0098P         2021 01  4.9111  1.662888  0.562426  157.9081  114.7104   10.5608  20210511   9.0  8.0  98P/Takamizawa                                           MPEC 2013-H38
0099P         2022 04 12.9062  4.705881  0.229810  174.9607   28.1072    4.3387  20210511   4.5  6.0  99P/Kowal                                                MPEC 2021-J28
0100P         2022 08 10.9773  2.017010  0.412346  181.9911   37.7012   25.5654  20210511   9.0  4.0  100P/Hartley                                             MPEC 2013-O31
0101P         2020 01 12.6057  2.344736  0.595933  277.7035  116.2291    5.0527  20210511  10.0  4.8  101P/Chernykh                                            MPEC 2020-FB5
0102P         2021 01 22.3987  2.069946  0.457096   20.5426  339.3662   25.8849  20210511   6.5  8.0  102P/Shoemaker                                           MPC 86232
0103P         2023 10 12.8871  1.066435  0.693214  181.2838  219.7310   13.6005  20210511   8.5  8.0  103P/Hartley                                             MPEC 2018-HA5
0104P         2022 01 11.0898  1.072662  0.665634  227.0894  207.4206    5.7188  20210511  16.0  4.0  104P/Kowal                                               MPC100283
0105P         2018 08  9.6755  2.047408  0.409508   46.4854  192.4128    9.1707  20210511  11.5  6.0  105P/Singer Brewster                                     MPC109147
0106P         2021 08 18.7586  1.528649  0.593761  353.6597   48.8882   19.5359  20210511  14.0  4.8  106P/Schuster                                            MPC 92276
0107P         2022 08 24.7130  0.967306  0.631542   95.4046  266.7934    2.7986  20210511   9.0  4.0  107P/Wilson-Harrington                                   MPEC 2015-M77
0108P         2021 09 10.0685  1.660303  0.555961  354.4041   50.2952   11.4368  20210511   8.0 12.0  108P/Ciffreo                                             MPC 89313
0109P         1992 12  2.5118  0.970069  0.962888  152.9092  139.0371  113.9898  20210511   4.0  6.0  109P/Swift-Tuttle                                        105,  420
0110P         2021 10 18.3383  2.455707  0.318092  167.4543  287.5343   11.7073  20210511   1.0 12.0  110P/Hartley                                             MPEC 2020-W26
0111P         2021 06 15.7290  3.707634  0.105954    1.0049   89.7667    4.2270  20210511   5.0  8.0  111P/Helin-Roman-Crockett                                MPC 75718
0112P         2020 02  7.9829  1.445978  0.589878   21.4856   31.8366   24.1952  20210511  15.3  4.0  112P/Urata-Niijima                                       MPEC 2021-F20
0113P         2022 05 31.8340  2.141800  0.421202  115.3424  306.7113    5.2961  20210511  13.5  4.0  113P/Spitaler                                            MPEC 2015-E14
0114P         2020 01 14.0384  1.578644  0.554743  172.7770  271.0515   18.2731  20210511  11.5  6.0  114P/Wiseman-Skiff                                       MPEC 2021-J28
0115P         2020 07 29.6230  2.056708  0.518621  120.9784  176.0101   11.6776  20210511  10.5  6.0  115P/Maury                                               MPEC 2020-SI8
0116P         2022 07 17.0320  2.196294  0.370642  173.3426   20.9860    3.6034  20210511   2.5 10.0  116P/Wild                                                MPC106348
0117P         2022 07  7.3107  3.040332  0.255712  222.8395   58.8434    8.7025  20210511  10.8  4.0  117P/Helin-Roman-Alu                                     MPEC 2021-F20
0118P         2022 11 22.3367  1.831649  0.455489  314.3337  142.1124   10.0876  20210511  12.0  4.0  118P/Shoemaker-Levy                                      MPC 95735
0119P         2022 08 10.7406  2.328075  0.390349  321.6653  104.6998    7.4058  20210511   3.5  8.0  119P/Parker-Hartley                                      MPC 84628
0120P         2021 05  7.1443  2.477866  0.374500   36.5585  358.6744    8.4900  20210511  12.0  4.0  120P/Mueller                                             MPEC 2020-SI8
0121P         2023 06 27.2494  3.733993  0.185591   11.3647   94.1286   20.1630  20210511   6.5  8.0  121P/Shoemaker-Holt                                      MPEC 2020-SI8
0122P         1995 09 11.5557  0.665310  0.962257   13.0080   79.5525   84.9004  20210511   7.5  5.2  122P/de Vico                                             MPC 75718
0123P         2019 02  5.0853  2.141233  0.447221  103.8165   46.1918   15.2950  20210511  12.2  4.0  123P/West-Hartley                                        MPEC 2021-F20
0124P         2020 04 26.9994  1.648554  0.503503  183.9623    0.3350   31.5199  20210511  15.2  4.0  124P/Mrkos                                               MPEC 2021-F20
0125P         2018 08 27.4742  1.523204  0.512707   87.2392  153.1501    9.9866  20210511   9.0  4.0  125P/Spacewatch                                          MPEC 2015-M77
0126P         2023 07  5.3455  1.713095  0.696266  356.5230  357.8622   45.8687  20210511   9.0  4.0  126P/IRAS                                                MPC 66205
0127P         2022 08 11.0706  2.209156  0.359891    6.4744   13.6360   14.2966  20210511  11.0  6.0  127P/Holt-Olmstead                                       MPC 84321
0128P         2017 01  9.2769  3.051517  0.320719  210.3083  214.2976    4.3675  20210511   8.5  4.0  128P/Shoemaker-Holt                                      MPC 89014
